{
    "links": {
        "self": "http://www.neowsapp.com/rest/v1/neo/3840874?api_key=iIulBulltgU6a56xZRHN4H3l9WmuAYTsLGpBGhQ2"
    },
    "id": "3840874",
    "neo_reference_id": "3840874",
    "name": "(2019 GH5)",
    "designation": "2019 GH5",
    "nasa_jpl_url": "http://ssd.jpl.nasa.gov/sbdb.cgi?sstr=3840874",
    "absolute_magnitude_h": 24.3,
    "estimated_diameter": {
        "kilometers": {
            "estimated_diameter_min": 0.0366906138,
            "estimated_diameter_max": 0.0820427065
        },
        "meters": {
            "estimated_diameter_min": 36.6906137531,
            "estimated_diameter_max": 82.0427064882
        },
        "miles": {
            "estimated_diameter_min": 0.0227984834,
            "estimated_diameter_max": 0.0509789586
        },
        "feet": {
            "estimated_diameter_min": 120.3760332259,
            "estimated_diameter_max": 269.1689931548
        }
    },
    "is_potentially_hazardous_asteroid": false,
    "close_approach_data": [
        {
            "close_approach_date": "2019-04-01",
            "close_approach_date_full": "2019-Apr-01 01:44",
            "epoch_date_close_approach": 1554083040000,
            "relative_velocity": {
                "kilometers_per_second": "6.7922038265",
                "kilometers_per_hour": "24451.933775233",
                "miles_per_hour": "15193.4807393941"
            },
            "miss_distance": {
                "astronomical": "0.2200835186",
                "lunar": "85.6124887354",
                "kilometers": "32924025.604665382",
                "miles": "20458040.8587789916"
            },
            "orbiting_body": "Earth"
        }
    ],
    "orbital_data": {
        "orbit_id": "1",
        "orbit_determination_date": "2019-04-09 14:12:02",
        "first_observation_date": "2019-04-03",
        "last_observation_date": "2019-04-09",
        "data_arc_in_days": 6,
        "observations_used": 11,
        "orbit_uncertainty": "9",
        "minimum_orbit_intersection": ".220072",
        "jupiter_tisserand_invariant": "4.440",
        "epoch_osculation": "2458578.5",
        "eccentricity": ".2036857155953102",
        "semi_major_axis": "1.527500839537668",
        "inclination": "13.13962917703437",
        "ascending_node_longitude": "193.4727632165979",
        "orbital_period": "689.5577013778334",
        "perihelion_distance": "1.216370737964001",
        "perihelion_argument": "348.297806210562",
        "aphelion_distance": "1.838630941111335",
        "perihelion_time": "2458563.651779366581",
        "mean_anomaly": "7.751866765246853",
        "mean_motion": ".5220737862555509",
        "equinox": "J2000",
        "orbit_class": {
            "orbit_class_type": "AMO",
            "orbit_class_description": "Near-Earth asteroid orbits similar to that of 1221 Amor",
            "orbit_class_range": "1.017 AU < q (perihelion) < 1.3 AU"
        }
    },
    "is_sentry_object": false
}